{
  "norad_id": 48676,
  "name": "STARLINK-2746",
  "history": [
    {
      "epoch": "2026-03-28T22:00:01.999584",
      "apogee_km": 486.05285037714566,
      "perigee_km": 483.16720250746766,
      "latitude_deg": 48.10182939201389,
      "longitude_deg": -144.3977782400325,
      "semi_major_axis_km": 6862.747026442306,
      "eccentricity": 0.00021024,
      "inclination_deg": 53.1456,
      "raan_deg": 24.5228,
      "arg_perigee_deg": 96.5944,
      "mean_anomaly_deg": 351.0546,
      "mean_motion_rev_day": 15.27058858
    },
    {
      "epoch": "2026-03-29T04:00:01.999584",
      "apogee_km": 484.67883214023186,
      "perigee_km": 481.80528659017,
      "latitude_deg": -14.33967616244463,
      "longitude_deg": -120.3977782400325,
      "semi_major_axis_km": 6861.379059365201,
      "eccentricity": 0.0002094,
      "inclination_deg": 53.1472,
      "raan_deg": 23.366,
      "arg_perigee_deg": 78.1172,
      "mean_anomaly_deg": 305.1145,
      "mean_motion_rev_day": 15.2751556
    }
  ]
}